{
    "links": {
        "self": "http://www.neowsapp.com/rest/v1/neo/3986726?api_key=iIulBulltgU6a56xZRHN4H3l9WmuAYTsLGpBGhQ2"
    },
    "id": "3986726",
    "neo_reference_id": "3986726",
    "name": "(2020 BJ)",
    "designation": "2020 BJ",
    "nasa_jpl_url": "http://ssd.jpl.nasa.gov/sbdb.cgi?sstr=3986726",
    "absolute_magnitude_h": 24.921,
    "estimated_diameter": {
        "kilometers": {
            "estimated_diameter_min": 0.0275648083,
            "estimated_diameter_max": 0.0616367852
        },
        "meters": {
            "estimated_diameter_min": 27.5648083057,
            "estimated_diameter_max": 61.6367851584
        },
        "miles": {
            "estimated_diameter_min": 0.0171279725,
            "estimated_diameter_max": 0.0382993108
        },
        "feet": {
            "estimated_diameter_min": 90.4357256818,
            "estimated_diameter_max": 202.220430219
        }
    },
    "is_potentially_hazardous_asteroid": false,
    "close_approach_data": [
        {
            "close_approach_date": "2020-01-17",
            "close_approach_date_full": "2020-Jan-17 20:47",
            "epoch_date_close_approach": 1579294020000,
            "relative_velocity": {
                "kilometers_per_second": "7.5194914879",
                "kilometers_per_hour": "27070.1693565887",
                "miles_per_hour": "16820.3505093759"
            },
            "miss_distance": {
                "astronomical": "0.0593971849",
                "lunar": "23.1055049261",
                "kilometers": "8885692.345036163",
                "miles": "5521313.1965105294"
            },
            "orbiting_body": "Earth"
        }
    ],
    "orbital_data": {
        "orbit_id": "4",
        "orbit_determination_date": "2020-01-27 05:37:35",
        "first_observation_date": "2020-01-18",
        "last_observation_date": "2020-01-26",
        "data_arc_in_days": 8,
        "observations_used": 48,
        "orbit_uncertainty": "8",
        "minimum_orbit_intersection": ".0538181",
        "jupiter_tisserand_invariant": "3.458",
        "epoch_osculation": "2458871.5",
        "eccentricity": ".5300190962141071",
        "semi_major_axis": "2.201765298349679",
        "inclination": "6.90258804687338",
        "ascending_node_longitude": "295.0480994559363",
        "orbital_period": "1193.314618117603",
        "perihelion_distance": "1.034787644842798",
        "perihelion_argument": "191.5574925838529",
        "aphelion_distance": "3.368742951856559",
        "perihelion_time": "2458873.668196825111",
        "mean_anomaly": "359.3458968446467",
        "mean_motion": ".3016807089549299",
        "equinox": "J2000",
        "orbit_class": {
            "orbit_class_type": "AMO",
            "orbit_class_description": "Near-Earth asteroid orbits similar to that of 1221 Amor",
            "orbit_class_range": "1.017 AU < q (perihelion) < 1.3 AU"
        }
    },
    "is_sentry_object": false
}